{
  "addresses": [
    {
      "sub_premises": "",
      "premises_name": "",
      "thoroughfare_number": "103a",
      "thoroughfare_name": "Parchmore Rd",
      "locality": "",
      "post_town": "Thornton Heath",
      "postcode": "CR7 8LZ",
      "district_id": "LS"
    },
    {
      "sub_premises": "Flat 2",
      "premises_name": "",
      "thoroughfare_number": "127",
      "thoroughfare_name": "Parchmore Rd",
      "locality": "",
      "post_town": "Thornton Heath",
      "postcode": "CR7 8LZ",
      "district_id": "LS"
    },
    {
      "sub_premises": "B",
      "premises_name": "",
      "thoroughfare_number": "129",
      "thoroughfare_name": "Parchmore Rd",
      "locality": "",
      "post_town": "Thornton Heath",
      "postcode": "CR7 8LZ",
      "district_id": "LS"
    },
    {
      "sub_premises": "",
      "premises_name": "",
      "thoroughfare_number": "129a",
      "thoroughfare_name": "Parchmore Rd",
      "locality": "",
      "post_town": "Thornton Heath",
      "postcode": "CR7 8LZ",
      "district_id": "LS"
    },
    {
      "sub_premises": "",
      "premises_name": "",
      "thoroughfare_number": "131b",
      "thoroughfare_name": "Parchmore Rd",
      "locality": "",
      "post_town": "Thornton Heath",
      "postcode": "CR7 8LZ",
      "district_id": "LS"
    },
    {
      "sub_premises": "",
      "premises_name": "",
      "thoroughfare_number": "137b",
      "thoroughfare_name": "Parchmore Rd",
      "locality": "",
      "post_town": "Thornton Heath",
      "postcode": "CR7 8LZ",
      "district_id": "LS"
    },
    {
      "sub_premises": "",
      "premises_name": "",
      "thoroughfare_number": "103",
      "thoroughfare_name": "Parchmore Road",
      "locality": "",
      "post_town": "Thornton Heath",
      "postcode": "CR7 8LZ",
      "district_id": "LS"
    },
    {
      "sub_premises": "Flat A-c",
      "premises_name": "",
      "thoroughfare_number": "103",
      "thoroughfare_name": "Parchmore Road",
      "locality": "",
      "post_town": "Thornton Heath",
      "postcode": "CR7 8LZ",
      "district_id": "LS"
    },
    {
      "sub_premises": "Flat C",
      "premises_name": "",
      "thoroughfare_number": "103",
      "thoroughfare_name": "Parchmore Road",
      "locality": "",
      "post_town": "Thornton Heath",
      "postcode": "CR7 8LZ",
      "district_id": "LS"
    },
    {
      "sub_premises": "",
      "premises_name": "",
      "thoroughfare_number": "105",
      "thoroughfare_name": "Parchmore Road",
      "locality": "",
      "post_town": "Thornton Heath",
      "postcode": "CR7 8LZ",
      "district_id": "LS"
    },
    {
      "sub_premises": "A",
      "premises_name": "",
      "thoroughfare_number": "105",
      "thoroughfare_name": "Parchmore Road",
      "locality": "",
      "post_town": "Thornton Heath",
      "postcode": "CR7 8LZ",
      "district_id": "LS"
    },
    {
      "sub_premises": "",
      "premises_name": "",
      "thoroughfare_number": "105a",
      "thoroughfare_name": "Parchmore Road",
      "locality": "",
      "post_town": "Thornton Heath",
      "postcode": "CR7 8LZ",
      "district_id": "LS"
    },
    {
      "sub_premises": "",
      "premises_name": "",
      "thoroughfare_number": "107",
      "thoroughfare_name": "Parchmore Road",
      "locality": "",
      "post_town": "Thornton Heath",
      "postcode": "CR7 8LZ",
      "district_id": "LS"
    },
    {
      "sub_premises": "",
      "premises_name": "",
      "thoroughfare_number": "109",
      "thoroughfare_name": "Parchmore Road",
      "locality": "",
      "post_town": "Thornton Heath",
      "postcode": "CR7 8LZ",
      "district_id": "LS"
    },
    {
      "sub_premises": "",
      "premises_name": "",
      "thoroughfare_number": "111",
      "thoroughfare_name": "Parchmore Road",
      "locality": "",
      "post_town": "Thornton Heath",
      "postcode": "CR7 8LZ",
      "district_id": "LS"
    },
    {
      "sub_premises": "",
      "premises_name": "",
      "thoroughfare_number": "111a",
      "thoroughfare_name": "Parchmore Road",
      "locality": "",
      "post_town": "Thornton Heath",
      "postcode": "CR7 8LZ",
      "district_id": "LS"
    },
    {
      "sub_premises": "",
      "premises_name": "",
      "thoroughfare_number": "113",
      "thoroughfare_name": "Parchmore Road",
      "locality": "",
      "post_town": "Thornton Heath",
      "postcode": "CR7 8LZ",
      "district_id": "LS"
    },
    {
      "sub_premises": "",
      "premises_name": "",
      "thoroughfare_number": "115",
      "thoroughfare_name": "Parchmore Road",
      "locality": "",
      "post_town": "Thornton Heath",
      "postcode": "CR7 8LZ",
      "district_id": "LS"
    },
    {
      "sub_premises": "",
      "premises_name": "",
      "thoroughfare_number": "115a",
      "thoroughfare_name": "Parchmore Road",
      "locality": "",
      "post_town": "Thornton Heath",
      "postcode": "CR7 8LZ",
      "district_id": "LS"
    },
    {
      "sub_premises": "",
      "premises_name": "",
      "thoroughfare_number": "117",
      "thoroughfare_name": "Parchmore Road",
      "locality": "",
      "post_town": "Thornton Heath",
      "postcode": "CR7 8LZ",
      "district_id": "LS"
    },
    {
      "sub_premises": "A",
      "premises_name": "",
      "thoroughfare_number": "117",
      "thoroughfare_name": "Parchmore Road",
      "locality": "",
      "post_town": "Thornton Heath",
      "postcode": "CR7 8LZ",
      "district_id": "LS"
    },
    {
      "sub_premises": "",
      "premises_name": "",
      "thoroughfare_number": "117a",
      "thoroughfare_name": "Parchmore Road",
      "locality": "",
      "post_town": "Thornton Heath",
      "postcode": "CR7 8LZ",
      "district_id": "LS"
    },
    {
      "sub_premises": "",
      "premises_name": "",
      "thoroughfare_number": "119",
      "thoroughfare_name": "Parchmore Road",
      "locality": "",
      "post_town": "Thornton Heath",
      "postcode": "CR7 8LZ",
      "district_id": "LS"
    },
    {
      "sub_premises": "",
      "premises_name": "",
      "thoroughfare_number": "121",
      "thoroughfare_name": "Parchmore Road",
      "locality": "",
      "post_town": "Thornton Heath",
      "postcode": "CR7 8LZ",
      "district_id": "LS"
    },
    {
      "sub_premises": "",
      "premises_name": "",
      "thoroughfare_number": "127a",
      "thoroughfare_name": "Parchmore Road",
      "locality": "",
      "post_town": "Thornton Heath",
      "postcode": "CR7 8LZ",
      "district_id": "LS"
    },
    {
      "sub_premises": "",
      "premises_name": "",
      "thoroughfare_number": "127b",
      "thoroughfare_name": "Parchmore Road",
      "locality": "",
      "post_town": "Thornton Heath",
      "postcode": "CR7 8LZ",
      "district_id": "LS"
    },
    {
      "sub_premises": "",
      "premises_name": "",
      "thoroughfare_number": "129",
      "thoroughfare_name": "Parchmore Road",
      "locality": "",
      "post_town": "Thornton Heath",
      "postcode": "CR7 8LZ",
      "district_id": "LS"
    },
    {
      "sub_premises": "A",
      "premises_name": "",
      "thoroughfare_number": "129",
      "thoroughfare_name": "Parchmore Road",
      "locality": "",
      "post_town": "Thornton Heath",
      "postcode": "CR7 8LZ",
      "district_id": "LS"
    },
    {
      "sub_premises": "",
      "premises_name": "",
      "thoroughfare_number": "129b",
      "thoroughfare_name": "Parchmore Road",
      "locality": "",
      "post_town": "Thornton Heath",
      "postcode": "CR7 8LZ",
      "district_id": "LS"
    },
    {
      "sub_premises": "",
      "premises_name": "",
      "thoroughfare_number": "131",
      "thoroughfare_name": "Parchmore Road",
      "locality": "",
      "post_town": "Thornton Heath",
      "postcode": "CR7 8LZ",
      "district_id": "LS"
    },
    {
      "sub_premises": "B",
      "premises_name": "",
      "thoroughfare_number": "131",
      "thoroughfare_name": "Parchmore Road",
      "locality": "",
      "post_town": "Thornton Heath",
      "postcode": "CR7 8LZ",
      "district_id": "LS"
    },
    {
      "sub_premises": "Flat A",
      "premises_name": "",
      "thoroughfare_number": "131",
      "thoroughfare_name": "Parchmore Road",
      "locality": "",
      "post_town": "Thornton Heath",
      "postcode": "CR7 8LZ",
      "district_id": "LS"
    },
    {
      "sub_premises": "",
      "premises_name": "",
      "thoroughfare_number": "133",
      "thoroughfare_name": "Parchmore Road",
      "locality": "",
      "post_town": "Thornton Heath",
      "postcode": "CR7 8LZ",
      "district_id": "LS"
    },
    {
      "sub_premises": "",
      "premises_name": "",
      "thoroughfare_number": "135",
      "thoroughfare_name": "Parchmore Road",
      "locality": "",
      "post_town": "Thornton Heath",
      "postcode": "CR7 8LZ",
      "district_id": "LS"
    },
    {
      "sub_premises": "Above",
      "premises_name": "Fl",
      "thoroughfare_number": "135",
      "thoroughfare_name": "Parchmore Road",
      "locality": "",
      "post_town": "Thornton Heath",
      "postcode": "CR7 8LZ",
      "district_id": "LS"
    },
    {
      "sub_premises": "",
      "premises_name": "",
      "thoroughfare_number": "135a",
      "thoroughfare_name": "Parchmore Road",
      "locality": "",
      "post_town": "Thornton Heath",
      "postcode": "CR7 8LZ",
      "district_id": "LS"
    },
    {
      "sub_premises": "",
      "premises_name": "",
      "thoroughfare_number": "137",
      "thoroughfare_name": "Parchmore Road",
      "locality": "",
      "post_town": "Thornton Heath",
      "postcode": "CR7 8LZ",
      "district_id": "LS"
    },
    {
      "sub_premises": "",
      "premises_name": "",
      "thoroughfare_number": "137a",
      "thoroughfare_name": "Parchmore Road",
      "locality": "",
      "post_town": "Thornton Heath",
      "postcode": "CR7 8LZ",
      "district_id": "LS"
    },
    {
      "sub_premises": "",
      "premises_name": "",
      "thoroughfare_number": "139",
      "thoroughfare_name": "Parchmore Road",
      "locality": "",
      "post_town": "Thornton Heath",
      "postcode": "CR7 8LZ",
      "district_id": "LS"
    },
    {
      "sub_premises": "",
      "premises_name": "",
      "thoroughfare_number": "141",
      "thoroughfare_name": "Parchmore Road",
      "locality": "",
      "post_town": "Thornton Heath",
      "postcode": "CR7 8LZ",
      "district_id": "LS"
    },
    {
      "sub_premises": "",
      "premises_name": "",
      "thoroughfare_number": "143",
      "thoroughfare_name": "Parchmore Road",
      "locality": "",
      "post_town": "Thornton Heath",
      "postcode": "CR7 8LZ",
      "district_id": "LS"
    },
    {
      "sub_premises": "",
      "premises_name": "",
      "thoroughfare_number": "143b",
      "thoroughfare_name": "Parchmore Road",
      "locality": "",
      "post_town": "Thornton Heath",
      "postcode": "CR7 8LZ",
      "district_id": "LS"
    },
    {
      "sub_premises": "Flat",
      "premises_name": "",
      "thoroughfare_number": "119",
      "thoroughfare_name": "Parchmore Road",
      "locality": "",
      "post_town": "Thornton Heath",
      "postcode": "CR7 8LZ",
      "district_id": "XX"
    },
    {
      "sub_premises": "",
      "premises_name": "",
      "thoroughfare_number": "121a",
      "thoroughfare_name": "Parchmore Road",
      "locality": "",
      "post_town": "Thornton Heath",
      "postcode": "CR7 8LZ",
      "district_id": "XX"
    },
    {
      "sub_premises": "",
      "premises_name": "",
      "thoroughfare_number": "133a",
      "thoroughfare_name": "Parchmore Road",
      "locality": "",
      "post_town": "Thornton Heath",
      "postcode": "CR7 8LZ",
      "district_id": "XX"
    },
    {
      "sub_premises": "",
      "premises_name": "",
      "thoroughfare_number": "143a",
      "thoroughfare_name": "Parchmore Road",
      "locality": "",
      "post_town": "Thornton Heath",
      "postcode": "CR7 8LZ",
      "district_id": "XX"
    }
  ]
}